{"type":"FeatureCollection","features":[{"type":"Feature","id":1,"geometry":{"type":"Point","coordinates":[95.732348348000073,5.4072779060000471]},"properties":{"OBJECTID":1,"ID":0,"TIPE":"Tipe A","KETINGGIAN":1726,"ELEVASI":"1726 Mdpl","NAMA_OBJEK":"Gn. Seulawah Agam"}},{"type":"Feature","id":2,"geometry":{"type":"Point","coordinates":[96.050409382000055,5.085619576000056]},"properties":{"OBJECTID":2,"ID":0,"TIPE":"Tipe A","KETINGGIAN":2780,"ELEVASI":"2780 Mdpl","NAMA_OBJEK":"Gn. Peiuet Sague"}},{"type":"Feature","id":3,"geometry":{"type":"Point","coordinates":[96.287424552000061,5.0167043340000532]},"properties":{"OBJECTID":3,"ID":0,"TIPE":"Tipe B","KETINGGIAN":0,"ELEVASI":" ","NAMA_OBJEK":"Gn. Bur Ni Geureudo"}},{"type":"Feature","id":4,"geometry":{"type":"Point","coordinates":[96.290776684000036,4.8753494160000628]},"properties":{"OBJECTID":4,"ID":0,"TIPE":"Tipe A","KETINGGIAN":2624,"ELEVASI":"2624 Mdpl","NAMA_OBJEK":"Gn. Bur Ni Telong"}},{"type":"Feature","id":5,"geometry":{"type":"Point","coordinates":[95.292866544000049,5.7393642050000722]},"properties":{"OBJECTID":5,"ID":0,"TIPE":"Tipe C","KETINGGIAN":0,"ELEVASI":" ","NAMA_OBJEK":" "}},{"type":"Feature","id":6,"geometry":{"type":"Point","coordinates":[96.821275927000045,3.8174232410000286]},"properties":{"OBJECTID":6,"ID":0,"TIPE":"Tipe C","KETINGGIAN":2624,"ELEVASI":"2624 Mdpl","NAMA_OBJEK":"Gn. Gayolesten"}},{"type":"Feature","id":7,"geometry":{"type":"Point","coordinates":[98.481775048000031,3.3386050880000653]},"properties":{"OBJECTID":7,"ID":0,"TIPE":"Tipe B","KETINGGIAN":2094,"ELEVASI":"2094 Mdpl","NAMA_OBJEK":"Gn. Sibayak"}},{"type":"Feature","id":8,"geometry":{"type":"Point","coordinates":[98.374780916000077,3.20577041100006]},"properties":{"OBJECTID":8,"ID":0,"TIPE":"Tipe B","KETINGGIAN":0,"ELEVASI":" ","NAMA_OBJEK":"Gn. Sinabung"}},{"type":"Feature","id":9,"geometry":{"type":"Point","coordinates":[98.762389085000052,2.4132337680000546]},"properties":{"OBJECTID":9,"ID":0,"TIPE":"Tipe B","KETINGGIAN":0,"ELEVASI":" ","NAMA_OBJEK":"Gn. Pusuk Bukit"}},{"type":"Feature","id":10,"geometry":{"type":"Point","coordinates":[99.107116228000052,2.1672603380000623]},"properties":{"OBJECTID":10,"ID":0,"TIPE":"Tipe C","KETINGGIAN":0,"ELEVASI":" ","NAMA_OBJEK":"Gn. Helatoba"}},{"type":"Feature","id":11,"geometry":{"type":"Point","coordinates":[99.505060616000037,1.5607756170000471]},"properties":{"OBJECTID":11,"ID":0,"TIPE":"Tipe B","KETINGGIAN":0,"ELEVASI":" ","NAMA_OBJEK":"Gn. Bual Buali"}},{"type":"Feature","id":12,"geometry":{"type":"Point","coordinates":[99.737345696000034,0.58065089700005501]},"properties":{"OBJECTID":12,"ID":0,"TIPE":"Tipe A","KETINGGIAN":2145,"ELEVASI":"2145 Mdpl","NAMA_OBJEK":"Gn. Sorik Marap"}},{"type":"Feature","id":13,"geometry":{"type":"Point","coordinates":[100.47917776100007,-0.079051068999945073]},"properties":{"OBJECTID":13,"ID":0,"TIPE":"Tipe B","KETINGGIAN":0,"ELEVASI":" ","NAMA_OBJEK":"Gn. Talamau"}},{"type":"Feature","id":14,"geometry":{"type":"Point","coordinates":[100.54357068900003,-0.37363327699995352]},"properties":{"OBJECTID":14,"ID":0,"TIPE":"Tipe A","KETINGGIAN":2891,"ELEVASI":"2891 Mdpl","NAMA_OBJEK":"Gn. Marapi"}},{"type":"Feature","id":15,"geometry":{"type":"Point","coordinates":[100.48308953700007,-0.4498985779999316]},"properties":{"OBJECTID":15,"ID":0,"TIPE":"Tipe A","KETINGGIAN":2438,"ELEVASI":"2438 Mdpl","NAMA_OBJEK":"Gn. Tandikat"}},{"type":"Feature","id":16,"geometry":{"type":"Point","coordinates":[100.86552959700003,-1.190474308999967]},"properties":{"OBJECTID":16,"ID":0,"TIPE":"Tipe A","KETINGGIAN":2438,"ELEVASI":"2438 Mdpl","NAMA_OBJEK":"Gn. Talang"}},{"type":"Feature","id":17,"geometry":{"type":"Point","coordinates":[101.12058291200003,-1.6486200269999358]},"properties":{"OBJECTID":17,"ID":0,"TIPE":"Tipe A","KETINGGIAN":3805,"ELEVASI":"3805 Mdpl","NAMA_OBJEK":"Gn. Kerinci"}},{"type":"Feature","id":18,"geometry":{"type":"Point","coordinates":[101.68544294000009,-2.2085917679999625]},"properties":{"OBJECTID":18,"ID":0,"TIPE":"Tipe B","KETINGGIAN":0,"ELEVASI":" ","NAMA_OBJEK":"Gn. Kunyit"}},{"type":"Feature","id":19,"geometry":{"type":"Point","coordinates":[101.76813268300003,-2.3393306469999402]},"properties":{"OBJECTID":19,"ID":0,"TIPE":"Tipe A","KETINGGIAN":2508,"ELEVASI":"2508 Mdpl","NAMA_OBJEK":"Gn. Sumbing"}},{"type":"Feature","id":20,"geometry":{"type":"Point","coordinates":[102.11439598100009,-3.0266891339999802]},"properties":{"OBJECTID":20,"ID":0,"TIPE":"Tipe B","KETINGGIAN":0,"ELEVASI":" ","NAMA_OBJEK":"Gn. Belirang Beriti"}},{"type":"Feature","id":21,"geometry":{"type":"Point","coordinates":[102.22111029100006,-3.1525397249999401]},"properties":{"OBJECTID":21,"ID":0,"TIPE":"Tipe B","KETINGGIAN":0,"ELEVASI":" ","NAMA_OBJEK":"Gn. Bukit Daun"}},{"type":"Feature","id":22,"geometry":{"type":"Point","coordinates":[102.84281951800006,-3.8675547339999525]},"properties":{"OBJECTID":22,"ID":0,"TIPE":"Tipe A","KETINGGIAN":1952,"ELEVASI":"1952 Mdpl","NAMA_OBJEK":"Gn. Kaba"}},{"type":"Feature","id":23,"geometry":{"type":"Point","coordinates":[103.12008142300004,-4.0277661109999485]},"properties":{"OBJECTID":23,"ID":0,"TIPE":"Tipe A","KETINGGIAN":3137,"ELEVASI":"3137 Mdpl","NAMA_OBJEK":"Gn. Dempo"}},{"type":"Feature","id":24,"geometry":{"type":"Point","coordinates":[103.59582726600007,-4.4153742799999804]},"properties":{"OBJECTID":24,"ID":0,"TIPE":"Tipe B","KETINGGIAN":0,"ELEVASI":" ","NAMA_OBJEK":"Gn. Lumut Balai"}},{"type":"Feature","id":25,"geometry":{"type":"Point","coordinates":[103.68340529600005,-4.5856420529999582]},"properties":{"OBJECTID":25,"ID":0,"TIPE":"Tipe C","KETINGGIAN":0,"ELEVASI":" ","NAMA_OBJEK":"Gn. Marga Bayur"}},{"type":"Feature","id":26,"geometry":{"type":"Point","coordinates":[104.23122484300006,-5.2784484709999333]},"properties":{"OBJECTID":26,"ID":0,"TIPE":"Tipe B","KETINGGIAN":0,"ELEVASI":" ","NAMA_OBJEK":"Gn. Sikincau Belerang"}},{"type":"Feature","id":27,"geometry":{"type":"Point","coordinates":[104.32788275700005,-5.3508019959999729]},"properties":{"OBJECTID":27,"ID":0,"TIPE":"Tipe C","KETINGGIAN":0,"ELEVASI":" ","NAMA_OBJEK":"Gn. Hulubelu"}},{"type":"Feature","id":28,"geometry":{"type":"Point","coordinates":[104.23639295200007,-5.3991309529999398]},"properties":{"OBJECTID":28,"ID":0,"TIPE":"Tipe C","KETINGGIAN":0,"ELEVASI":" ","NAMA_OBJEK":"Gn. Pematang Bata"}},{"type":"Feature","id":29,"geometry":{"type":"Point","coordinates":[105.52325207400008,-5.6812811459999466]},"properties":{"OBJECTID":29,"ID":0,"TIPE":"Tipe B","KETINGGIAN":1281,"ELEVASI":"1281 Mdpl","NAMA_OBJEK":"Gn. Rajabasa"}},{"type":"Feature","id":30,"geometry":{"type":"Point","coordinates":[105.41988989600009,-6.141522661999943]},"properties":{"OBJECTID":30,"ID":0,"TIPE":"Bawah Laut Tipe A","KETINGGIAN":813,"ELEVASI":"813 Mdpl","NAMA_OBJEK":"Gn. Anak Krakatau"}},{"type":"Feature","id":31,"geometry":{"type":"Point","coordinates":[105.90206018100008,-6.5154424809999796]},"properties":{"OBJECTID":31,"ID":0,"TIPE":"Tipe B","KETINGGIAN":0,"ELEVASI":" ","NAMA_OBJEK":"Gn. Pulosari"}},{"type":"Feature","id":32,"geometry":{"type":"Point","coordinates":[106.00388620500007,-6.4655773689999592]},"properties":{"OBJECTID":32,"ID":0,"TIPE":"Tipe B","KETINGGIAN":0,"ELEVASI":" ","NAMA_OBJEK":"Gn. Karang"}},{"type":"Feature","id":33,"geometry":{"type":"Point","coordinates":[106.54807379700009,-6.8650579119999406]},"properties":{"OBJECTID":33,"ID":0,"TIPE":"Tipe C","KETINGGIAN":0,"ELEVASI":" ","NAMA_OBJEK":"Gn. Kiaraberes Gagak"}},{"type":"Feature","id":34,"geometry":{"type":"Point","coordinates":[106.65143597600007,-6.8048565809999673]},"properties":{"OBJECTID":34,"ID":0,"TIPE":"Tipe C","KETINGGIAN":0,"ELEVASI":" ","NAMA_OBJEK":"Gn. Perbakti"}},{"type":"Feature","id":35,"geometry":{"type":"Point","coordinates":[106.72714163300009,-6.6580537329999743]},"properties":{"OBJECTID":35,"ID":0,"TIPE":"Tipe A","KETINGGIAN":2211,"ELEVASI":"2211 Mdpl","NAMA_OBJEK":"Gn. Salak"}},{"type":"Feature","id":36,"geometry":{"type":"Point","coordinates":[106.95635440300003,-6.8126087449999773]},"properties":{"OBJECTID":36,"ID":0,"TIPE":"Tipe A","KETINGGIAN":2211,"ELEVASI":"2211 Mdpl","NAMA_OBJEK":"Gn. Gede"}},{"type":"Feature","id":37,"geometry":{"type":"Point","coordinates":[107.40933201100006,-7.2084573339999451]},"properties":{"OBJECTID":37,"ID":0,"TIPE":"Tipe B","KETINGGIAN":2432,"ELEVASI":"2432 Mdpl","NAMA_OBJEK":"Gn. Patuha"}},{"type":"Feature","id":38,"geometry":{"type":"Point","coordinates":[107.61633619000008,-7.3324919479999267]},"properties":{"OBJECTID":38,"ID":0,"TIPE":"Tipe B","KETINGGIAN":0,"ELEVASI":" ","NAMA_OBJEK":"Gn. Wayang Windu"}},{"type":"Feature","id":39,"geometry":{"type":"Point","coordinates":[107.57499131900005,-6.769168074999925]},"properties":{"OBJECTID":39,"ID":0,"TIPE":"Tipe A","KETINGGIAN":2084,"ELEVASI":"2084 Mdpl","NAMA_OBJEK":"Gn. Tangkubanparahu"}},{"type":"Feature","id":40,"geometry":{"type":"Point","coordinates":[107.74037080400007,-7.1567762439999569]},"properties":{"OBJECTID":40,"ID":0,"TIPE":"Tipe A","KETINGGIAN":2249,"ELEVASI":"2249 Mdpl","NAMA_OBJEK":"Gn. Guntur"}},{"type":"Feature","id":41,"geometry":{"type":"Point","coordinates":[107.71453026000006,-7.2549703139999338]},"properties":{"OBJECTID":41,"ID":0,"TIPE":"Tipe C","KETINGGIAN":0,"ELEVASI":" ","NAMA_OBJEK":"Gn. Kawah Kamojang"}},{"type":"Feature","id":42,"geometry":{"type":"Point","coordinates":[107.73003458600004,-7.3376600569999368]},"properties":{"OBJECTID":42,"ID":0,"TIPE":"Tipe C","KETINGGIAN":0,"ELEVASI":" ","NAMA_OBJEK":"Gn. Kawah Manuk"}},{"type":"Feature","id":43,"geometry":{"type":"Point","coordinates":[107.74037080400007,-7.4668627799999285]},"properties":{"OBJECTID":43,"ID":0,"TIPE":"Tipe A","KETINGGIAN":2665,"ELEVASI":"2665 Mdpl","NAMA_OBJEK":"Gn. Papandayan"}},{"type":"Feature","id":44,"geometry":{"type":"Point","coordinates":[108.07448190800005,-7.1312155209999446]},"properties":{"OBJECTID":44,"ID":0,"TIPE":"Tipe C","KETINGGIAN":0,"ELEVASI":" ","NAMA_OBJEK":"Gn. Kawah Karaha"}},{"type":"Feature","id":45,"geometry":{"type":"Point","coordinates":[108.05199349500003,-7.2139052639999477]},"properties":{"OBJECTID":45,"ID":0,"TIPE":"Tipe B","KETINGGIAN":0,"ELEVASI":" ","NAMA_OBJEK":"Gn. Talagabodas"}},{"type":"Feature","id":46,"geometry":{"type":"Point","coordinates":[108.05380947200007,-7.3139153109999597]},"properties":{"OBJECTID":46,"ID":0,"TIPE":"Tipe A","KETINGGIAN":2168,"ELEVASI":"2168 Mdpl","NAMA_OBJEK":"Gn. Galunggung"}},{"type":"Feature","id":47,"geometry":{"type":"Point","coordinates":[108.35537576700006,-7.5340481959999579]},"properties":{"OBJECTID":47,"ID":0,"TIPE":"Tipe A","KETINGGIAN":0,"ELEVASI":" ","NAMA_OBJEK":" "}},{"type":"Feature","id":48,"geometry":{"type":"Point","coordinates":[108.39155252900008,-6.9242113429999677]},"properties":{"OBJECTID":48,"ID":0,"TIPE":"Tipe A","KETINGGIAN":3078,"ELEVASI":"3078 Mdpl","NAMA_OBJEK":"Gn. Ceremai"}},{"type":"Feature","id":49,"geometry":{"type":"Point","coordinates":[109.20811374000004,-7.2653065319999541]},"properties":{"OBJECTID":49,"ID":0,"TIPE":"Tipe A","KETINGGIAN":3432,"ELEVASI":"3432 Mdpl","NAMA_OBJEK":"Gn. Slamet"}},{"type":"Feature","id":50,"geometry":{"type":"Point","coordinates":[109.86446357300008,-7.2601384229999439]},"properties":{"OBJECTID":50,"ID":0,"TIPE":"Tipe A","KETINGGIAN":2565,"ELEVASI":"2565 Mdpl","NAMA_OBJEK":"Gn. Dieng"}},{"type":"Feature","id":51,"geometry":{"type":"Point","coordinates":[109.92648088000004,-7.2187935519999655]},"properties":{"OBJECTID":51,"ID":0,"TIPE":"Tipe A","KETINGGIAN":0,"ELEVASI":" ","NAMA_OBJEK":"Gn. Butak Patarangan"}},{"type":"Feature","id":52,"geometry":{"type":"Point","coordinates":[109.99366629700006,-7.3324919479999267]},"properties":{"OBJECTID":52,"ID":0,"TIPE":"Tipe A","KETINGGIAN":3371,"ELEVASI":"3371 Mdpl","NAMA_OBJEK":"Gn. Sumbing"}},{"type":"Feature","id":53,"geometry":{"type":"Point","coordinates":[110.08152414800009,-7.3841730369999254]},"properties":{"OBJECTID":53,"ID":0,"TIPE":"Tipe A","KETINGGIAN":3150,"ELEVASI":"3150 Mdpl","NAMA_OBJEK":"Gn. Sundoro"}},{"type":"Feature","id":54,"geometry":{"type":"Point","coordinates":[110.31408905000006,-7.203289224999935]},"properties":{"OBJECTID":54,"ID":0,"TIPE":"Tipe B","KETINGGIAN":2050,"ELEVASI":"2050 Mdpl","NAMA_OBJEK":"Gn. Ungaran"}},{"type":"Feature","id":55,"geometry":{"type":"Point","coordinates":[110.42778744600008,-7.5908973939999669]},"properties":{"OBJECTID":55,"ID":0,"TIPE":"Tipe A","KETINGGIAN":2968,"ELEVASI":"2968 Mdpl","NAMA_OBJEK":"Gn. Merapi"}},{"type":"Feature","id":56,"geometry":{"type":"Point","coordinates":[110.43812366400005,-7.4875352159999693]},"properties":{"OBJECTID":56,"ID":0,"TIPE":"Tipe A","KETINGGIAN":3145,"ELEVASI":"3145 Mdpl","NAMA_OBJEK":"Gn. Merbabu"}},{"type":"Feature","id":57,"geometry":{"type":"Point","coordinates":[111.19266756800005,-7.67358713699997]},"properties":{"OBJECTID":57,"ID":0,"TIPE":"Tipe B","KETINGGIAN":3265,"ELEVASI":"3265 Mdpl","NAMA_OBJEK":"Gn. Lawu"}},{"type":"Feature","id":58,"geometry":{"type":"Point","coordinates":[111.77149576800008,-7.8544709499999499]},"properties":{"OBJECTID":58,"ID":0,"TIPE":"Tipe B","KETINGGIAN":0,"ELEVASI":" ","NAMA_OBJEK":"Gn. Wilis"}},{"type":"Feature","id":59,"geometry":{"type":"Point","coordinates":[112.30897909600003,-7.9630012369999577]},"properties":{"OBJECTID":59,"ID":0,"TIPE":"Tipe A","KETINGGIAN":1731,"ELEVASI":"1731 Mdpl","NAMA_OBJEK":"Gn. Kelud"}},{"type":"Feature","id":60,"geometry":{"type":"Point","coordinates":[112.57255265100002,-7.776949315999957]},"properties":{"OBJECTID":60,"ID":0,"TIPE":"Tipe A","KETINGGIAN":3371,"ELEVASI":"3371 Mdpl","NAMA_OBJEK":"Gn. Arjuna"}},{"type":"Feature","id":61,"geometry":{"type":"Point","coordinates":[112.92398405800009,-8.1025401779999697]},"properties":{"OBJECTID":61,"ID":0,"TIPE":"Tipe A","KETINGGIAN":3676,"ELEVASI":"3676 Mdpl","NAMA_OBJEK":"Gn. Semeru"}},{"type":"Feature","id":62,"geometry":{"type":"Point","coordinates":[112.9291521670001,-7.9681693459999678]},"properties":{"OBJECTID":62,"ID":0,"TIPE":"Tipe A","KETINGGIAN":2329,"ELEVASI":"2329 Mdpl","NAMA_OBJEK":"Gn. Bromo"}},{"type":"Feature","id":63,"geometry":{"type":"Point","coordinates":[113.50281225800006,-8.0508590889999709]},"properties":{"OBJECTID":63,"ID":0,"TIPE":"Tipe A","KETINGGIAN":1671,"ELEVASI":"1671 Mdpl","NAMA_OBJEK":"Gn. Lamongan"}},{"type":"Feature","id":64,"geometry":{"type":"Point","coordinates":[113.59583821900003,-7.9888417819999518]},"properties":{"OBJECTID":64,"ID":0,"TIPE":"Tipe B","KETINGGIAN":3072,"ELEVASI":"3072 Mdpl","NAMA_OBJEK":"Gn. Argopuro"}},{"type":"Feature","id":65,"geometry":{"type":"Point","coordinates":[114.07130424000002,-8.1180445049999435]},"properties":{"OBJECTID":65,"ID":0,"TIPE":"Tipe A","KETINGGIAN":3332,"ELEVASI":"3332 Mdpl","NAMA_OBJEK":"Gn. Raung"}},{"type":"Feature","id":66,"geometry":{"type":"Point","coordinates":[114.2160112900001,-8.0922039599999493]},"properties":{"OBJECTID":66,"ID":0,"TIPE":"Tipe A","KETINGGIAN":2386,"ELEVASI":"2386 Mdpl","NAMA_OBJEK":"Gn. Ijen"}},{"type":"Feature","id":67,"geometry":{"type":"Point","coordinates":[115.35299525400001,-8.2369110099999716]},"properties":{"OBJECTID":67,"ID":0,"TIPE":"Tipe A","KETINGGIAN":1717,"ELEVASI":"1717 Mdpl","NAMA_OBJEK":"Gn. Batur"}},{"type":"Feature","id":68,"geometry":{"type":"Point","coordinates":[115.5028704130001,-8.3712818419999735]},"properties":{"OBJECTID":68,"ID":0,"TIPE":"Tipe A","KETINGGIAN":3014,"ELEVASI":"3014 Mdpl","NAMA_OBJEK":"Gn. Agung"}},{"type":"Feature","id":69,"geometry":{"type":"Point","coordinates":[116.47447489100011,-8.4281310409999719]},"properties":{"OBJECTID":69,"ID":0,"TIPE":"Tipe A","KETINGGIAN":3726,"ELEVASI":"3726 Mdpl","NAMA_OBJEK":"Gn. Rinjani"}},{"type":"Feature","id":70,"geometry":{"type":"Point","coordinates":[117.99906702500004,-8.2627515549999657]},"properties":{"OBJECTID":70,"ID":0,"TIPE":"Tipe A","KETINGGIAN":2851,"ELEVASI":"2851 Mdpl","NAMA_OBJEK":"Gn. Tambora"}},{"type":"Feature","id":71,"geometry":{"type":"Point","coordinates":[119.05336124600001,-8.221406682999941]},"properties":{"OBJECTID":71,"ID":0,"TIPE":"Tipe A","KETINGGIAN":1949,"ELEVASI":"1949 Mdpl","NAMA_OBJEK":"Gn. Sangeang Api"}},{"type":"Feature","id":72,"geometry":{"type":"Point","coordinates":[119.93710787300006,-8.7795624479999788]},"properties":{"OBJECTID":72,"ID":0,"TIPE":"Tipe C","KETINGGIAN":0,"ELEVASI":" ","NAMA_OBJEK":"Gn. Waesano"}},{"type":"Feature","id":73,"geometry":{"type":"Point","coordinates":[120.28337117100011,-8.7950667739999631]},"properties":{"OBJECTID":73,"ID":0,"TIPE":"Tipe C","KETINGGIAN":0,"ELEVASI":" ","NAMA_OBJEK":"Gn. Pocoleok"}},{"type":"Feature","id":74,"geometry":{"type":"Point","coordinates":[120.2351139540001,-8.5863720759999751]},"properties":{"OBJECTID":74,"ID":0,"TIPE":"Tipe A","KETINGGIAN":2247,"ELEVASI":"2247 Mdpl","NAMA_OBJEK":"Gn. Anak Ranakah"}},{"type":"Feature","id":75,"geometry":{"type":"Point","coordinates":[120.92764055000009,-8.7569196699999452]},"properties":{"OBJECTID":75,"ID":0,"TIPE":"Tipe A","KETINGGIAN":1559,"ELEVASI":"1559 Mdpl","NAMA_OBJEK":"Gn. Inielika"}},{"type":"Feature","id":76,"geometry":{"type":"Point","coordinates":[120.99999407500002,-8.7362472349999507]},"properties":{"OBJECTID":76,"ID":0,"TIPE":"Tipe A","KETINGGIAN":2230,"ELEVASI":"2230 Mdpl","NAMA_OBJEK":"Gn. Inierie"}},{"type":"Feature","id":77,"geometry":{"type":"Point","coordinates":[121.04133894600011,-8.5915401849999284]},"properties":{"OBJECTID":77,"ID":0,"TIPE":"Tipe A","KETINGGIAN":2123,"ELEVASI":"2123 Mdpl","NAMA_OBJEK":"Gn. Ebulobo"}},{"type":"Feature","id":78,"geometry":{"type":"Point","coordinates":[121.73386554300009,-8.343470955999976]},"properties":{"OBJECTID":78,"ID":0,"TIPE":"Tipe A","KETINGGIAN":875,"ELEVASI":"875 Mdpl","NAMA_OBJEK":"Gn. Rokatenda"}},{"type":"Feature","id":79,"geometry":{"type":"Point","coordinates":[122.82950463500003,-8.1625871439999287]},"properties":{"OBJECTID":79,"ID":0,"TIPE":"Tipe A","KETINGGIAN":1117,"ELEVASI":"1117 Mdpl","NAMA_OBJEK":"Gn. Lereboleng"}},{"type":"Feature","id":80,"geometry":{"type":"Point","coordinates":[122.93286681400002,-8.1160741629999507]},"properties":{"OBJECTID":80,"ID":0,"TIPE":"Tipe C","KETINGGIAN":0,"ELEVASI":" ","NAMA_OBJEK":"Gn. Riang Kotang"}},{"type":"Feature","id":81,"geometry":{"type":"Point","coordinates":[121.67901898700006,-8.8809865849999596]},"properties":{"OBJECTID":81,"ID":0,"TIPE":"Tipe A","KETINGGIAN":637,"ELEVASI":"637 Mdpl","NAMA_OBJEK":"Gn. Iya"}},{"type":"Feature","id":82,"geometry":{"type":"Point","coordinates":[121.77411219100009,-8.777624406999962]},"properties":{"OBJECTID":82,"ID":0,"TIPE":"Tipe C","KETINGGIAN":0,"ELEVASI":" ","NAMA_OBJEK":"Gn. Ndetunapi"}},{"type":"Feature","id":83,"geometry":{"type":"Point","coordinates":[121.86093642100002,-8.8272382519999724]},"properties":{"OBJECTID":83,"ID":0,"TIPE":"Tipe C","KETINGGIAN":0,"ELEVASI":" ","NAMA_OBJEK":"Gn. Sukoria"}},{"type":"Feature","id":84,"geometry":{"type":"Point","coordinates":[121.82811892900008,-8.6971311099999298]},"properties":{"OBJECTID":84,"ID":0,"TIPE":"Tipe A","KETINGGIAN":1384,"ELEVASI":"1384 Mdpl","NAMA_OBJEK":"Gn. Kelimutu"}},{"type":"Feature","id":85,"geometry":{"type":"Point","coordinates":[122.39168690100007,-8.7091416359999698]},"properties":{"OBJECTID":85,"ID":0,"TIPE":"Tipe A","KETINGGIAN":1703,"ELEVASI":"1703 Mdpl","NAMA_OBJEK":"Gn. Egon"}},{"type":"Feature","id":86,"geometry":{"type":"Point","coordinates":[122.67583418200002,-8.5745455549999292]},"properties":{"OBJECTID":86,"ID":0,"TIPE":"Tipe A","KETINGGIAN":1584,"ELEVASI":"1584 Mdpl","NAMA_OBJEK":"Gn. Lewotobi Laki-Laki"}},{"type":"Feature","id":87,"geometry":{"type":"Point","coordinates":[122.7954751420001,-8.5446353149999368]},"properties":{"OBJECTID":87,"ID":0,"TIPE":"Tipe A","KETINGGIAN":1703,"ELEVASI":"1703 Mdpl","NAMA_OBJEK":"Gn. Lewotobi Perempuan"}},{"type":"Feature","id":88,"geometry":{"type":"Point","coordinates":[123.63296186600007,-7.7968793119999305]},"properties":{"OBJECTID":88,"ID":0,"TIPE":"Tipe A","KETINGGIAN":470,"ELEVASI":"470 Mdpl","NAMA_OBJEK":"Gn. Batutara"}},{"type":"Feature","id":89,"geometry":{"type":"Point","coordinates":[123.18430826400004,-8.3352636339999435]},"properties":{"OBJECTID":89,"ID":0,"TIPE":"Tipe A","KETINGGIAN":1659,"ELEVASI":"1659 Mdpl","NAMA_OBJEK":"Gn. Ili Boleng"}},{"type":"Feature","id":90,"geometry":{"type":"Point","coordinates":[123.49836578600002,-8.2754431539999587]},"properties":{"OBJECTID":90,"ID":0,"TIPE":"Tipe A","KETINGGIAN":1436,"ELEVASI":"1436 Mdpl","NAMA_OBJEK":"Gn. Ili Lewotolo"}},{"type":"Feature","id":91,"geometry":{"type":"Point","coordinates":[123.57314138600009,-8.5072475149999605]},"properties":{"OBJECTID":91,"ID":0,"TIPE":"Tipe A","KETINGGIAN":1486,"ELEVASI":"1486 Mdpl","NAMA_OBJEK":"Gn. Ili Werung"}},{"type":"Feature","id":92,"geometry":{"type":"Point","coordinates":[123.69278234600006,-8.3427411939999274]},"properties":{"OBJECTID":92,"ID":0,"TIPE":"Tipe B","KETINGGIAN":0,"ELEVASI":" ","NAMA_OBJEK":"Gn. Ili Labalekan"}},{"type":"Feature","id":93,"geometry":{"type":"Point","coordinates":[124.13545390000002,-8.4870581029999812]},"properties":{"OBJECTID":93,"ID":0,"TIPE":"Tipe A","KETINGGIAN":862,"ELEVASI":"862 Mdpl","NAMA_OBJEK":"Gn. Sirung"}},{"type":"Feature","id":94,"geometry":{"type":"Point","coordinates":[126.68125723900005,-6.7130428599999732]},"properties":{"OBJECTID":94,"ID":0,"TIPE":"Tipe A","KETINGGIAN":282,"ELEVASI":"282 Mdpl","NAMA_OBJEK":"Gn. Gunungapi"}},{"type":"Feature","id":95,"geometry":{"type":"Point","coordinates":[128.63807913900007,-7.1716493829999308]},"properties":{"OBJECTID":95,"ID":0,"TIPE":"Tipe A","KETINGGIAN":868,"ELEVASI":"868 Mdpl","NAMA_OBJEK":"Gn. Wurlali"}},{"type":"Feature","id":96,"geometry":{"type":"Point","coordinates":[129.16392780400008,-7.0024107319999302]},"properties":{"OBJECTID":96,"ID":0,"TIPE":"Tipe A","KETINGGIAN":655,"ELEVASI":"655 Mdpl","NAMA_OBJEK":"Gn. Serawerna"}},{"type":"Feature","id":97,"geometry":{"type":"Point","coordinates":[129.55680324400009,-6.7727297059999501]},"properties":{"OBJECTID":97,"ID":0,"TIPE":"Tipe A","KETINGGIAN":655,"ELEVASI":"655 Mdpl","NAMA_OBJEK":"Gn. Serawerna"}},{"type":"Feature","id":98,"geometry":{"type":"Point","coordinates":[130.04034224600002,-6.3194118909999588]},"properties":{"OBJECTID":98,"ID":0,"TIPE":"Tipe A","KETINGGIAN":641,"ELEVASI":"641 Mdpl","NAMA_OBJEK":"Gn. Legalata"}},{"type":"Feature","id":99,"geometry":{"type":"Point","coordinates":[130.31837717300004,-5.6061918629999354]},"properties":{"OBJECTID":99,"ID":0,"TIPE":"Tipe B","KETINGGIAN":375,"ELEVASI":"375 Mdpl","NAMA_OBJEK":"Gn. Manuk"}},{"type":"Feature","id":100,"geometry":{"type":"Point","coordinates":[130.01465423700006,-4.522762284999942]},"properties":{"OBJECTID":100,"ID":0,"TIPE":"Tipe A","KETINGGIAN":641,"ELEVASI":"641 Mdpl","NAMA_OBJEK":"Gn. Banda Api"}},{"type":"Feature","id":101,"geometry":{"type":"Point","coordinates":[127.44025853400001,0.3204935400000295]},"properties":{"OBJECTID":101,"ID":0,"TIPE":"Tipe A","KETINGGIAN":585,"ELEVASI":"585 Mdpl","NAMA_OBJEK":"Gn. Kie Best"}},{"type":"Feature","id":102,"geometry":{"type":"Point","coordinates":[127.36430508700005,0.81419094900002165]},"properties":{"OBJECTID":102,"ID":0,"TIPE":"Tipe A","KETINGGIAN":715,"ELEVASI":"715 Mdpl","NAMA_OBJEK":"Gn. Gamalama"}},{"type":"Feature","id":103,"geometry":{"type":"Point","coordinates":[127.49247653000009,1.2366820010000197]},"properties":{"OBJECTID":103,"ID":0,"TIPE":"Tipe B","KETINGGIAN":0,"ELEVASI":" ","NAMA_OBJEK":"Gn. Tadoko"}},{"type":"Feature","id":104,"geometry":{"type":"Point","coordinates":[127.64438342500011,1.3506121720000692]},"properties":{"OBJECTID":104,"ID":0,"TIPE":"Tipe A","KETINGGIAN":1635,"ELEVASI":"1635 Mdpl","NAMA_OBJEK":"Gn. Gamkonora"}},{"type":"Feature","id":105,"geometry":{"type":"Point","coordinates":[127.78204904800009,1.545242882000025]},"properties":{"OBJECTID":105,"ID":0,"TIPE":"Tipe A","KETINGGIAN":1340,"ELEVASI":"1340 Mdpl","NAMA_OBJEK":"Gn. Ibu"}},{"type":"Feature","id":106,"geometry":{"type":"Point","coordinates":[127.88173794800002,1.7541148630000407]},"properties":{"OBJECTID":106,"ID":0,"TIPE":"Tipe A","KETINGGIAN":0,"ELEVASI":" ","NAMA_OBJEK":"Gn. Malupang Werirang"}},{"type":"Feature","id":107,"geometry":{"type":"Point","coordinates":[127.78204904800009,1.8300683100000583]},"properties":{"OBJECTID":107,"ID":0,"TIPE":"Tipe A","KETINGGIAN":1087,"ELEVASI":"1087 Mdpl","NAMA_OBJEK":"Gn. Dukono"}},{"type":"Feature","id":108,"geometry":{"type":"Point","coordinates":[125.17080554800009,-5.1889758269999788]},"properties":{"OBJECTID":108,"ID":0,"TIPE":"Bawah Laut Tipe A","KETINGGIAN":0,"ELEVASI":" ","NAMA_OBJEK":"Gn. Nieuwerkerk"}},{"type":"Feature","id":109,"geometry":{"type":"Point","coordinates":[124.80354407100003,-5.3682344049999529]},"properties":{"OBJECTID":109,"ID":0,"TIPE":"Bawah Laut Tipe A","KETINGGIAN":0,"ELEVASI":" ","NAMA_OBJEK":"Gn. Emperor of Cina"}},{"type":"Feature","id":110,"geometry":{"type":"Point","coordinates":[125.17765913300002,3.9106241330000557]},"properties":{"OBJECTID":110,"ID":0,"TIPE":"Bawah Laut Tipe A","KETINGGIAN":0,"ELEVASI":" ","NAMA_OBJEK":"Gn. Sangir"}},{"type":"Feature","id":111,"geometry":{"type":"Point","coordinates":[125.49764048800012,3.7166960390000554]},"properties":{"OBJECTID":111,"ID":0,"TIPE":"Tipe A","KETINGGIAN":1320,"ELEVASI":"1320 Mdpl","NAMA_OBJEK":"Gn. Awu"}},{"type":"Feature","id":112,"geometry":{"type":"Point","coordinates":[125.35542655200004,3.2092508600000542]},"properties":{"OBJECTID":112,"ID":0,"TIPE":"Bawah Laut Tipe A","KETINGGIAN":0,"ELEVASI":" ","NAMA_OBJEK":"Gn. Banua Wuhu"}},{"type":"Feature","id":113,"geometry":{"type":"Point","coordinates":[125.23260542600008,2.7955375930000628]},"properties":{"OBJECTID":113,"ID":0,"TIPE":"Tipe A","KETINGGIAN":1984,"ELEVASI":"1984 Mdpl","NAMA_OBJEK":"Gn. Karangetang"}},{"type":"Feature","id":114,"geometry":{"type":"Point","coordinates":[125.28755171900002,2.3721279220000611]},"properties":{"OBJECTID":114,"ID":0,"TIPE":"Tipe A","KETINGGIAN":714,"ELEVASI":"714 Mdpl","NAMA_OBJEK":"Gn. Ruang"}},{"type":"Feature","id":115,"geometry":{"type":"Point","coordinates":[125.15361204900012,1.527053932000058]},"properties":{"OBJECTID":115,"ID":0,"TIPE":"Tipe A","KETINGGIAN":1149,"ELEVASI":"1149 Mdpl","NAMA_OBJEK":"Gn. Tangkoko"}},{"type":"Feature","id":116,"geometry":{"type":"Point","coordinates":[125.04695159800008,1.4947325830000295]},"properties":{"OBJECTID":116,"ID":0,"TIPE":"Tipe B","KETINGGIAN":1990,"ELEVASI":"1990 Mdpl","NAMA_OBJEK":"Gn. Klabat"}},{"type":"Feature","id":117,"geometry":{"type":"Point","coordinates":[124.95806788800007,1.1828315660000612]},"properties":{"OBJECTID":117,"ID":0,"TIPE":"Tipe C","KETINGGIAN":0,"ELEVASI":" ","NAMA_OBJEK":"Gn. Tompusu"}},{"type":"Feature","id":118,"geometry":{"type":"Point","coordinates":[121.61408890700011,-0.18923233699996445]},"properties":{"OBJECTID":118,"ID":0,"TIPE":"Tipe A","KETINGGIAN":486,"ELEVASI":"486 Mdpl","NAMA_OBJEK":"Gn. Colo"}},{"type":"Feature","id":119,"geometry":{"type":"Point","coordinates":[124.35239984900011,0.59332532600006971]},"properties":{"OBJECTID":119,"ID":0,"TIPE":"Tipe A","KETINGGIAN":1689,"ELEVASI":"1689 Mdpl","NAMA_OBJEK":"Gn. Ambang"}},{"type":"Feature","id":120,"geometry":{"type":"Point","coordinates":[124.88199654700009,1.1337757840000222]},"properties":{"OBJECTID":120,"ID":0,"TIPE":"Tipe C","KETINGGIAN":0,"ELEVASI":" ","NAMA_OBJEK":"Gn. Tempang"}},{"type":"Feature","id":121,"geometry":{"type":"Point","coordinates":[124.90544170900012,1.0681293300000334]},"properties":{"OBJECTID":121,"ID":0,"TIPE":"Tipe C","KETINGGIAN":0,"ELEVASI":" ","NAMA_OBJEK":"Gn. Batukolok"}},{"type":"Feature","id":122,"geometry":{"type":"Point","coordinates":[124.84448428700011,1.2088003030000323]},"properties":{"OBJECTID":122,"ID":0,"TIPE":"Tipe A","KETINGGIAN":0,"ELEVASI":" ","NAMA_OBJEK":"Gn. Sempu"}},{"type":"Feature","id":123,"geometry":{"type":"Point","coordinates":[124.75539267200008,1.0118609420000553]},"properties":{"OBJECTID":123,"ID":0,"TIPE":"Tipe A","KETINGGIAN":1848,"ELEVASI":"1848 Mdpl","NAMA_OBJEK":"Gn. Soputan"}},{"type":"Feature","id":124,"geometry":{"type":"Point","coordinates":[124.75539267200008,1.1665990110000735]},"properties":{"OBJECTID":124,"ID":0,"TIPE":"Tipe C","KETINGGIAN":0,"ELEVASI":" ","NAMA_OBJEK":"Gn. Sarongsong"}},{"type":"Feature","id":125,"geometry":{"type":"Point","coordinates":[124.83041719000005,1.0587512660000584]},"properties":{"OBJECTID":125,"ID":0,"TIPE":"Tipe B","KETINGGIAN":0,"ELEVASI":" ","NAMA_OBJEK":"Gn. Lahendong"}},{"type":"Feature","id":126,"geometry":{"type":"Point","coordinates":[124.77768083900003,1.3600633190000622]},"properties":{"OBJECTID":126,"ID":0,"TIPE":"Tipe A","KETINGGIAN":1580,"ELEVASI":"1580 Mdpl","NAMA_OBJEK":"Gn. Lokon"}},{"type":"Feature","id":127,"geometry":{"type":"Point","coordinates":[124.21428188400012,-7.1879645049999681]},"properties":{"OBJECTID":127,"ID":0,"TIPE":"Bawah Laut Tipe B","KETINGGIAN":0,"ELEVASI":" ","NAMA_OBJEK":"Gn. Yersei"}}]}